[{"OBJECT_NAME":"STARLINK-3946","OBJECT_ID":"2022-053AP","EPOCH":"2026-03-09T10:31:02.890560","MEAN_MOTION":15.0882697,"ECCENTRICITY":0.00011617,"INCLINATION":53.2174,"RA_OF_ASC_NODE":145.2497,"ARG_OF_PERICENTER":104.0452,"MEAN_ANOMALY":256.067,"EPHEMERIS_TYPE":0,"CLASSIFICATION_TYPE":"U","NORAD_CAT_ID":52693,"ELEMENT_SET_NO":999,"REV_AT_EPOCH":21111,"BSTAR":0.00010542913,"MEAN_MOTION_DOT":1.39e-5,"MEAN_MOTION_DDOT":0},{"OBJECT_NAME":"YUNYAO-1 45","OBJECT_ID":"2025-059C","EPOCH":"2026-03-09T23:25:14.115648","MEAN_MOTION":15.10348188,"ECCENTRICITY":0.00171316,"INCLINATION":97.6099,"RA_OF_ASC_NODE":251.0366,"ARG_OF_PERICENTER":134.7318,"MEAN_ANOMALY":225.5309,"EPHEMERIS_TYPE":0,"CLASSIFICATION_TYPE":"U","NORAD_CAT_ID":63346,"ELEMENT_SET_NO":999,"REV_AT_EPOCH":5332,"BSTAR":0.00033512738,"MEAN_MOTION_DOT":5.451e-5,"MEAN_MOTION_DDOT":0}]
